     2.100          NAVIGATION                              RINEX VERSION / TYPE
fic2rin                                 01/30/2011 00:21:21 PGM / RUN BY / DATE
                                                            END OF HEADER
14 11  1 29 21 59 44.0  .127544626594D-03  .284217094304D-11  .000000000000D+00
     .600000000000D+01  .107093750000D+03  .391087718945D-08  .265508692417D+01
     .551901757717D-05  .563453580253D-02  .534206628799D-05  .515362834549D+04
     .597584000000D+06  .726431608200D-07 -.287417946200D+01 -.819563865662D-07
     .984257610852D+00  .286812500000D+03 -.207730550649D+01 -.776210903728D-08
     .112147528538D-09  .100000000000D+01  .162000000000D+04  .000000000000D+00
     .240000000000D+01  .000000000000D+00 -.884756445885D-08  .600000000000D+01
     .590826000000D+06  .400000000000D+01
 8 11  1 29 21 59 44.0  .731274485588D-05  .113686837722D-12  .000000000000D+00
     .110000000000D+02 -.375625000000D+02  .394052128139D-08 -.354712912817D+00
    -.208429992199D-05  .114317038096D-01  .189989805222D-05  .515362291718D+04
     .597584000000D+06  .229105353355D-06 -.180096646214D+01  .260770320892D-07
     .995116249032D+00  .358750000000D+03 -.308894379431D+01 -.816105422638D-08
    -.160720980388D-09  .100000000000D+01  .162000000000D+04  .000000000000D+00
     .240000000000D+01  .000000000000D+00 -.465661287308D-08  .110000000000D+02
     .591906000000D+06  .400000000000D+01
 8 11  1 29 23 59 44.0  .731321051717D-05  .113686837722D-12  .000000000000D+00
     .120000000000D+02 -.391875000000D+02  .396873674239D-08  .695506509746D+00
    -.207684934139D-05  .114319731947D-01  .165775418282D-05  .515362337875D+04
     .604784000000D+06  .135973095894D-06 -.180102524658D+01  .150874257088D-06
     .995114948498D+00  .361468750000D+03 -.308895573026D+01 -.816569727693D-08
    -.197508227010D-09  .100000000000D+01  .162000000000D+04  .000000000000D+00
     .240000000000D+01  .000000000000D+00 -.465661287308D-08  .120000000000D+02
     .597606000000D+06  .400000000000D+01
 1 11  1 30  0  0  0.0 -.204207841307D-03 -.306954461848D-11  .000000000000D+00
     .710000000000D+02 -.103812500000D+03  .414374403214D-08 -.166406876218D+01
    -.541098415852D-05  .442521995865D-02  .838562846184D-05  .515356089973D+04
     .000000000000D+00  .111758708954D-06 -.955455378346D+00 -.689178705215D-07
     .967675870373D+00  .221500000000D+03  .892733789740D+00 -.779996775711D-08
    -.771460705864D-10  .100000000000D+01  .162100000000D+04  .000000000000D+00
     .240000000000D+01  .630000000000D+02 -.195577740669D-07  .710000000000D+02
     .597606000000D+06  .400000000000D+01
 2 11  1 30  0  0  0.0  .317507423460D-03  .216004991671D-11  .000000000000D+00
     .800000000000D+02  .275000000000D+01  .524557564214D-08  .295806766559D+01
     .260770320892D-06  .995566498023D-02  .597350299358D-05  .515369473457D+04
     .000000000000D+00 -.171363353729D-06  .112383158485D+01 -.558793544769D-07
     .938923829123D+00  .250968750000D+03 -.309494555910D+01 -.817284043161D-08
     .107147320259D-11  .100000000000D+01  .162100000000D+04  .000000000000D+00
     .240000000000D+01  .000000000000D+00 -.172294676304D-07  .800000000000D+02
     .597606000000D+06  .400000000000D+01
 3 11  1 30  0  0  0.0  .669222790748D-03  .511590769747D-11  .000000000000D+00
     .670000000000D+02 -.196875000000D+02  .504735309966D-08  .290489942650D+01
    -.105239450932D-05  .139207988977D-01  .931136310101D-05  .515363922691D+04
     .000000000000D+00  .689178705215D-07 -.320775919776D-01 -.113621354103D-06
     .928664242730D+00  .180750000000D+03  .107129414142D+01 -.793104464556D-08
     .490734726785D-09  .100000000000D+01  .162100000000D+04  .000000000000D+00
     .240000000000D+01  .000000000000D+00 -.419095158577D-08  .670000000000D+02
     .597606000000D+06  .400000000000D+01
 4 11  1 30  0  0  0.0  .218157656491D-04  .101181285572D-10  .000000000000D+00
     .490000000000D+02  .184375000000D+01  .538665294715D-08 -.344287039451D+00
     .296160578728D-06  .963501376100D-02  .591203570366D-05  .515357575035D+04
     .000000000000D+00  .651925802231D-07  .114138162642D+01  .102445483208D-06
     .938018085338D+00  .252500000000D+03  .705985051088D+00 -.849642533879D-08
    -.339299847486D-10  .100000000000D+01  .162100000000D+04  .000000000000D+00
     .240000000000D+01  .000000000000D+00 -.605359673500D-08  .490000000000D+02
     .597606000000D+06  .400000000000D+01
 5 11  1 30  0  0  0.0 -.106639694422D-03 -.591171556152D-11  .000000000000D+00
     .910000000000D+02  .333437500000D+02  .452661712320D-08 -.163362573539D+01
     .154413282871D-05  .225498294458D-02  .101383775473D-04  .515360898781D+04
     .000000000000D+00 -.353902578354D-07  .218540652133D+01 -.409781932831D-07
     .955271167701D+00  .178593750000D+03  .265369331184D+00 -.789318592573D-08
    -.399659504565D-09  .100000000000D+01  .162100000000D+04  .000000000000D+00
     .240000000000D+01  .000000000000D+00 -.977888703346D-08  .910000000000D+02
     .597606000000D+06  .400000000000D+01
 6 11  1 30  0  0  0.0 -.449642539024D-04 -.260342858383D-10  .000000000000D+00
     .940000000000D+02 -.840625000000D+01  .502520932014D-08 -.127287009754D+01
    -.422820448875D-06  .638337887358D-02  .926852226257D-05  .515365189362D+04
     .000000000000D+00 -.124797224998D-06  .405612587278D-01  .409781932831D-07
     .935846082089D+00  .190500000000D+03 -.872306694481D+00 -.820391315448D-08
     .557880380814D-09  .100000000000D+01  .162100000000D+04  .000000000000D+00
     .240000000000D+01  .000000000000D+00 -.465661287308D-08  .940000000000D+02
     .597606000000D+06  .400000000000D+01
 7 11  1 30  0  0  0.0  .266963616014D-05  .682121026330D-12  .000000000000D+00
     .100000000000D+03 -.320937500000D+02  .449983029314D-08  .122790234377D+01
    -.154972076416D-05  .416741555091D-02  .122934579849D-05  .515367627525D+04
     .000000000000D+00  .223517417908D-07 -.199452412186D+01  .484287738800D-07
     .973559789793D+00  .360937500000D+03 -.309782296097D+01 -.837213444729D-08
    -.159292349451D-09  .100000000000D+01  .162100000000D+04  .000000000000D+00
     .240000000000D+01  .000000000000D+00 -.107102096081D-07  .100000000000D+03
     .597606000000D+06  .400000000000D+01
 9 11  1 30  0  0  0.0  .585513189435D-04  .250111042988D-11  .000000000000D+00
     .620000000000D+02 -.108125000000D+02  .437268213976D-08  .573085269245D+00
    -.633299350739D-06  .170098181115D-01  .193715095520D-05  .515368158150D+04
     .000000000000D+00 -.167638063431D-06 -.202386375878D+01 -.689178705215D-07
     .982544309954D+00  .356687500000D+03  .155674013005D+01 -.850392565121D-08
    -.106433004790D-09  .100000000000D+01  .162100000000D+04  .000000000000D+00
     .240000000000D+01  .000000000000D+00 -.558793544769D-08  .620000000000D+02
     .597606000000D+06  .400000000000D+01
10 11  1 30  0  0  0.0 -.647567212582D-04 -.113686837722D-11  .000000000000D+00
     .380000000000D+02  .448437500000D+02  .463447875893D-08 -.138156852863D+01
     .225566327572D-05  .100226802751D-01  .984035432339D-05  .515356803322D+04
     .000000000000D+00  .188127160072D-06  .220976873895D+01 -.875443220139D-07
     .950259279119D+00  .179968750000D+03  .689720237182D+00 -.789604318761D-08
    -.375015620906D-09  .100000000000D+01  .162100000000D+04  .000000000000D+00
     .240000000000D+01  .000000000000D+00 -.279396772385D-08  .380000000000D+02
     .597606000000D+06  .400000000000D+01
11 11  1 30  0  0  0.0 -.123171135783D-03 -.295585778076D-11  .000000000000D+00
     .720000000000D+02  .696875000000D+01  .663599070136D-08  .129397112405D+01
     .340864062309D-06  .116181342164D-01  .578165054321D-05  .515348583984D+04
     .000000000000D+00 -.186264514923D-06  .892518534511D+00  .782310962677D-07
     .887886896373D+00  .230937500000D+03  .908083911191D+00 -.911216527254D-08
     .178578867098D-10  .100000000000D+01  .162100000000D+04  .000000000000D+00
     .240000000000D+01  .000000000000D+00 -.116415321827D-07  .720000000000D+02
     .597606000000D+06  .400000000000D+01
12 11  1 30  0  0  0.0 -.314302742481D-04  .329691829393D-11  .000000000000D+00
     .105000000000D+03 -.112187500000D+03  .406481217289D-08  .136260597821D+01
    -.587292015553D-05  .355310318992D-02  .776536762714D-05  .515381968498D+04
     .000000000000D+00  .428408384323D-07 -.939488325323D+00  .726431608200D-07
     .973810413993D+00  .236250000000D+03 -.294415796400D+00 -.779639617977D-08
    -.101789954246D-09  .100000000000D+01  .162100000000D+04  .000000000000D+00
     .240000000000D+01  .000000000000D+00 -.121071934700D-07  .105000000000D+03
     .597606000000D+06  .400000000000D+01
13 11  1 30  0  0  0.0  .284234993160D-03 -.125055521494D-11  .000000000000D+00
     .660000000000D+02  .119593750000D+03  .389516224914D-08 -.252863167975D+01
     .621378421783D-05  .444346724544D-02  .544078648090D-05  .515365324211D+04
     .000000000000D+00  .465661287308D-07 -.297124192315D+01  .204890966415D-07
     .991150140605D+00  .291906250000D+03  .178677897728D+01 -.779389607563D-08
     .216080429189D-09  .100000000000D+01  .162100000000D+04  .000000000000D+00
     .240000000000D+01  .000000000000D+00 -.111758708954D-07  .660000000000D+02
     .597606000000D+06  .400000000000D+01
14 11  1 30  0  0  0.0  .127565115690D-03  .284217094304D-11  .000000000000D+00
     .290000000000D+02  .109718750000D+03  .392587781428D-08 -.257549251681D+01
     .580400228500D-05  .563355442137D-02  .585615634918D-05  .515363021660D+04
     .000000000000D+00  .109896063805D-06 -.299465087262D+01 -.745058059692D-08
     .984258471047D+00  .278437500000D+03 -.207737332298D+01 -.776496629916D-08
     .152149194768D-09  .100000000000D+01  .162100000000D+04  .000000000000D+00
     .240000000000D+01  .000000000000D+00 -.884756445885D-08  .290000000000D+02
     .597606000000D+06  .400000000000D+01
